{
  "type": "FeatureCollection",
  "features": [
    {
      "type": "Feature",
      "properties": {
        "norad_id": 66725,
        "name": "FLOCK 4H-22",
        "group": "last-30-days",
        "lat": 20.60762307093941,
        "lon": -106.93976846343267,
        "alt_km": 513.9733923105123,
        "timestamp": "2025-12-24T16:52:40.178368+00:00",
        "meta_object_name": "FLOCK 4H-22",
        "meta_object_id": "2025-276BM",
        "meta_epoch": "2025-12-24T05:06:03.659040",
        "meta_mean_motion": 15.1750665,
        "meta_eccentricity": 0.00015225,
        "meta_inclination": 97.4374,
        "meta_ra_of_asc_node": 69.7628,
        "meta_arg_of_pericenter": 282.8806,
        "meta_mean_anomaly": 77.2257,
        "meta_ephemeris_type": 0,
        "meta_classification_type": "U",
        "meta_norad_cat_id": 66725,
        "meta_element_set_no": 999,
        "meta_rev_at_epoch": 386,
        "meta_bstar": 0.00035165663,
        "meta_mean_motion_dot": 6.985e-05,
        "meta_mean_motion_ddot": 0,
        "tle_line1": "1 66725U 25276BM  25358.21254235  .00006985  00000+0  35166-3 0  9996",
        "tle_line2": "2 66725  97.4374  69.7628 0001522 282.8806  77.2257 15.17506650  3867"
      },
      "geometry": {
        "type": "Point",
        "coordinates": [
          -106.93976846343267,
          20.60762307093941
        ]
      }
    },
    {
      "type": "Feature",
      "properties": {
        "norad_id": 66726,
        "name": "FLOCK 4H-23",
        "group": "last-30-days",
        "lat": 34.81949407985001,
        "lon": -104.52138190695895,
        "alt_km": 504.6623907691528,
        "timestamp": "2025-12-24T16:52:40.178380+00:00",
        "meta_object_name": "FLOCK 4H-23",
        "meta_object_id": "2025-276BN",
        "meta_epoch": "2025-12-24T05:10:53.265792",
        "meta_mean_motion": 15.19231787,
        "meta_eccentricity": 0.0010661,
        "meta_inclination": 97.4416,
        "meta_ra_of_asc_node": 69.7821,
        "meta_arg_of_pericenter": 256.9845,
        "meta_mean_anomaly": 103.02,
        "meta_ephemeris_type": 0,
        "meta_classification_type": "U",
        "meta_norad_cat_id": 66726,
        "meta_element_set_no": 999,
        "meta_rev_at_epoch": 386,
        "meta_bstar": 0.062263634,
        "meta_mean_motion_dot": 0.01430648,
        "meta_mean_motion_ddot": 0,
        "tle_line1": "1 66726U 25276BN  25358.21589428  .01430648  00000+0  62264-1 0  9997",
        "tle_line2": "2 66726  97.4416  69.7821 0010661 256.9845 103.0200 15.19231787  3863"
      },
      "geometry": {
        "type": "Point",
        "coordinates": [
          -104.52138190695895,
          34.81949407985001
        ]
      }
    },
    {
      "type": "Feature",
      "properties": {
        "norad_id": 66727,
        "name": "FLOCK 4H-24",
        "group": "last-30-days",
        "lat": 32.01201959170513,
        "lon": -105.0438720886181,
        "alt_km": 512.6387409301688,
        "timestamp": "2025-12-24T16:52:40.178390+00:00",
        "meta_object_name": "FLOCK 4H-24",
        "meta_object_id": "2025-276BP",
        "meta_epoch": "2025-12-24T03:34:02.964288",
        "meta_mean_motion": 15.17340043,
        "meta_eccentricity": 0.0002855,
        "meta_inclination": 97.4439,
        "meta_ra_of_asc_node": 69.7227,
        "meta_arg_of_pericenter": 255.8351,
        "meta_mean_anomaly": 104.2566,
        "meta_ephemeris_type": 0,
        "meta_classification_type": "U",
        "meta_norad_cat_id": 66727,
        "meta_element_set_no": 999,
        "meta_rev_at_epoch": 385,
        "meta_bstar": 0.00032237032,
        "meta_mean_motion_dot": 6.367e-05,
        "meta_mean_motion_ddot": 0,
        "tle_line1": "1 66727U 25276BP  25358.14864542  .00006367  00000+0  32237-3 0  9998",
        "tle_line2": "2 66727  97.4439  69.7227 0002855 255.8351 104.2566 15.17340043  3856"
      },
      "geometry": {
        "type": "Point",
        "coordinates": [
          -105.0438720886181,
          32.01201959170513
        ]
      }
    },
    {
      "type": "Feature",
      "properties": {
        "norad_id": 66728,
        "name": "FLOCK 4H-25",
        "group": "last-30-days",
        "lat": -49.94628765709666,
        "lon": -118.65660090580216,
        "alt_km": 518.638891128302,
        "timestamp": "2025-12-24T16:52:40.178400+00:00",
        "meta_object_name": "FLOCK 4H-25",
        "meta_object_id": "2025-276BQ",
        "meta_epoch": "2025-12-24T06:22:30.764640",
        "meta_mean_motion": 15.18228639,
        "meta_eccentricity": 0.00017182,
        "meta_inclination": 97.4396,
        "meta_ra_of_asc_node": 69.8549,
        "meta_arg_of_pericenter": 116.1359,
        "meta_mean_anomaly": 244.0052,
        "meta_ephemeris_type": 0,
        "meta_classification_type": "U",
        "meta_norad_cat_id": 66728,
        "meta_element_set_no": 999,
        "meta_rev_at_epoch": 315,
        "meta_bstar": 0.00031037641,
        "meta_mean_motion_dot": 6.286e-05,
        "meta_mean_motion_ddot": 0,
        "tle_line1": "1 66728U 25276BQ  25358.26563385  .00006286  00000+0  31038-3 0  9991",
        "tle_line2": "2 66728  97.4396  69.8549 0001718 116.1359 244.0052 15.18228639  3154"
      },
      "geometry": {
        "type": "Point",
        "coordinates": [
          -118.65660090580216,
          -49.94628765709666
        ]
      }
    },
    {
      "type": "Feature",
      "properties": {
        "norad_id": 66729,
        "name": "FLOCK 4H-26",
        "group": "last-30-days",
        "lat": 50.22334847885714,
        "lon": -100.72847612933745,
        "alt_km": 511.26569459970233,
        "timestamp": "2025-12-24T16:52:40.178410+00:00",
        "meta_object_name": "FLOCK 4H-26",
        "meta_object_id": "2025-276BR",
        "meta_epoch": "2025-12-24T03:38:49.533216",
        "meta_mean_motion": 15.17163701,
        "meta_eccentricity": 0.00037044,
        "meta_inclination": 97.4391,
        "meta_ra_of_asc_node": 69.7001,
        "meta_arg_of_pericenter": 254.8465,
        "meta_mean_anomaly": 105.2359,
        "meta_ephemeris_type": 0,
        "meta_classification_type": "U",
        "meta_norad_cat_id": 66729,
        "meta_element_set_no": 999,
        "meta_rev_at_epoch": 385,
        "meta_bstar": 0.00037815699,
        "meta_mean_motion_dot": 7.444e-05,
        "meta_mean_motion_ddot": 0,
        "tle_line1": "1 66729U 25276BR  25358.15196219  .00007444  00000+0  37816-3 0  9995",
        "tle_line2": "2 66729  97.4391  69.7001 0003704 254.8465 105.2359 15.17163701  3859"
      },
      "geometry": {
        "type": "Point",
        "coordinates": [
          -100.72847612933745,
          50.22334847885714
        ]
      }
    },
    {
      "type": "Feature",
      "properties": {
        "norad_id": 66730,
        "name": "FLOCK 4H-27",
        "group": "last-30-days",
        "lat": -37.66721014007414,
        "lon": -115.51620332058278,
        "alt_km": 518.0094775060843,
        "timestamp": "2025-12-24T16:52:40.178420+00:00",
        "meta_object_name": "FLOCK 4H-27",
        "meta_object_id": "2025-276BS",
        "meta_epoch": "2025-12-24T06:25:45.403104",
        "meta_mean_motion": 15.18104899,
        "meta_eccentricity": 0.00013229,
        "meta_inclination": 97.437,
        "meta_ra_of_asc_node": 69.8434,
        "meta_arg_of_pericenter": 129.2897,
        "meta_mean_anomaly": 230.8455,
        "meta_ephemeris_type": 0,
        "meta_classification_type": "U",
        "meta_norad_cat_id": 66730,
        "meta_element_set_no": 999,
        "meta_rev_at_epoch": 387,
        "meta_bstar": 0.00054169796,
        "meta_mean_motion_dot": 0.00010988,
        "meta_mean_motion_ddot": 0,
        "tle_line1": "1 66730U 25276BS  25358.26788661  .00010988  00000+0  54170-3 0  9996",
        "tle_line2": "2 66730  97.4370  69.8434 0001322 129.2897 230.8455 15.18104899  3875"
      },
      "geometry": {
        "type": "Point",
        "coordinates": [
          -115.51620332058278,
          -37.66721014007414
        ]
      }
    },
    {
      "type": "Feature",
      "properties": {
        "norad_id": 66731,
        "name": "FLOCK 4H-28",
        "group": "last-30-days",
        "lat": 48.59807594042812,
        "lon": -101.2405819274924,
        "alt_km": 511.34360975619256,
        "timestamp": "2025-12-24T16:52:40.178433+00:00",
        "meta_object_name": "FLOCK 4H-28",
        "meta_object_id": "2025-276BT",
        "meta_epoch": "2025-12-24T05:13:21.727776",
        "meta_mean_motion": 15.17153285,
        "meta_eccentricity": 0.00030507,
        "meta_inclination": 97.4379,
        "meta_ra_of_asc_node": 69.7617,
        "meta_arg_of_pericenter": 258.7783,
        "meta_mean_anomaly": 101.3108,
        "meta_ephemeris_type": 0,
        "meta_classification_type": "U",
        "meta_norad_cat_id": 66731,
        "meta_element_set_no": 999,
        "meta_rev_at_epoch": 386,
        "meta_bstar": 0.00053272125,
        "meta_mean_motion_dot": 0.00010514,
        "meta_mean_motion_ddot": 0,
        "tle_line1": "1 66731U 25276BT  25358.21761259  .00010514  00000+0  53272-3 0  9993",
        "tle_line2": "2 66731  97.4379  69.7617 0003050 258.7783 101.3108 15.17153285  3867"
      },
      "geometry": {
        "type": "Point",
        "coordinates": [
          -101.2405819274924,
          48.59807594042812
        ]
      }
    }
  ]
}